2026-027D               
1 67749U 26027D   26067.64187441  .00015968  00000+0  78329-3 0  9996
2 67749  97.4903 196.6819 0010217 208.3418 151.7261 15.18146656  3654
2026-027E               
1 67750U 26027E   26067.57613296  .00013794  00000+0  67844-3 0  9997
2 67750  97.4914 196.6198 0009464 209.2789 150.7916 15.18094407  3697
2026-027F               
1 67751U 26027F   26067.57357006  .00005399  00000+0  26617-3 0  9997
2 67751  97.4915 196.6238 0010586 208.9394 151.1254 15.18308880  3692
2026-027G               
1 67752U 26027G   26067.45641438  .00010547  00000+0  61457-3 0  9992
2 67752  97.4907 196.4718 0011921 232.2182 127.7970 15.12118485  3670
JIELONG-3 R/B           
1 67753U 26027H   26067.61933222  .00560729  23712-5  75697-3 0  9990
2 67753  97.5125 198.5564 0217272 248.7794 109.0139 15.74792565  3815
JIELONG-3 DEB           
1 67754U 26027J   26067.60167908  .05482361  24484-5  12113-2 0  9990
2 67754  97.4956 199.0380 0091002 252.1397 106.9951 16.19756149  3780
2026-028A               
1 67756U 26028A   26064.32694001  .00000004  00000+0  00000+0 0  9994
2 67756   0.4806 289.7424 0042016 229.1663 201.2342  0.99523939   215
JAM-E JAM 1             
1 67757U 26028B   26065.58849579  .00000151  00000+0  00000+0 0  9999
2 67757   0.5003 285.7022 0004514 129.9316 355.2368  1.00260970    99
KUIPER-00159            
1 67764U 26030A   26067.59108437  .00032157  00000+0  91801-3 0  9998
2 67764  51.8840 224.4645 0004919  42.4993 317.6373 15.35730240  4924
KUIPER-00160            
1 67765U 26030B   26067.59263328  .00029394  00000+0  84504-3 0  9991
2 67765  51.8807 224.4656 0005153  52.4700 307.6754 15.35555752  4923
KUIPER-00177            
1 67766U 26030C   26067.57845740  .00031529  00000+0  87818-3 0  9998
2 67766  51.8832 224.3807 0001360  16.9059 343.1973 15.36518250  4928
KUIPER-00178            
1 67767U 26030D   26067.59443573  .00040919  00000+0  11713-2 0  9992
2 67767  51.8832 224.4842 0006388  43.2145 316.9342 15.35522475  4924
KUIPER-00180            
1 67768U 26030E   26067.63227364  .00042011  00000+0  13496-2 0  9991
2 67768  51.8821 224.7183 0014457  65.3986 294.8503 15.31774808  4926
KUIPER-00197            
1 67769U 26030F   26067.58090049  .00047007  00000+0  13096-2 0  9990
2 67769  51.8832 224.3965 0001397  60.9633 299.1494 15.36323025  4925
KUIPER-00198            
1 67770U 26030G   26067.58647707  .00031258  00000+0  88455-3 0  9994
2 67770  51.8807 224.4266 0003354  43.3690 316.7560 15.36025333  4928
KUIPER-00199            
1 67771U 26030H   26067.61173886  .00027922  00000+0  83401-3 0  9990
2 67771  51.8817 224.5869 0010615  58.0903 302.1114 15.34340151  4928
KUIPER-00200            
1 67772U 26030J   26067.57118998  .00033898  00000+0  92694-3 0  9992
2 67772  51.8816 224.3296 0001142 250.9358 109.1505 15.37055046  4920
KUIPER-00203            
1 67773U 26030K   26067.58335648 -.01516295  00000+0 -86014-1 0  9994
2 67773  51.8849 225.2868 0011683  58.6880 193.2943 15.15659516  3484
KUIPER-00205            
1 67774U 26030L   26067.58163944  .00031840  00000+0  89066-3 0  9990
2 67774  51.8807 224.3953 0003196  17.5380 342.5716 15.36376885  4928
KUIPER-00208            
1 67775U 26030M   26067.62874179  .00038790  00000+0  12270-2 0  9998
2 67775  51.8847 224.7052 0015058  56.4195 303.8225 15.32298355  4929
KUIPER-00209            
1 67776U 26030N   26067.57290484  .00028302  00000+0  95943-3 0  9991
2 67776  51.8831 225.0743 0013109  63.9959 296.2373 15.30253809  4911
KUIPER-00213            
1 67777U 26030P   26067.62876366 -.00228383  00000+0 -73765-2 0  9997
2 67777  51.8819 224.6944 0015196  62.8691 297.3842 15.32369352  4922
KUIPER-00214            
1 67778U 26030Q   26067.57452260  .00031988  00000+0  88486-3 0  9993
2 67778  51.8845 224.3568 0000396 245.4844 114.6102 15.36726044  4925
KUIPER-00215            
1 67779U 26030R   26067.60993086  .00027423  00000+0  81690-3 0  9993
2 67779  51.8848 224.5853 0010407  56.5731 303.6249 15.34437354  4921
KUIPER-00218            
1 67780U 26030S   26067.59886736  .00027568  00000+0  80346-3 0  9993
2 67780  51.8833 224.5119 0006921  47.7932 312.3641 15.35152136  4929
KUIPER-00220            
1 67781U 26030T   26067.60584558  .00041585  00000+0  12193-2 0  9992
2 67781  51.8813 224.5500 0008682  52.7628 307.4149 15.34744450  4929
KUIPER-00222            
1 67782U 26030U   26067.56764021  .00026549  00000+0  84119-3 0  9994
2 67782  51.8819 225.0334 0017184  61.7009 298.5707 15.32406380  4911
KUIPER-00223            
1 67783U 26030V   26067.61394063  .00027970  00000+0  84145-3 0  9994
2 67783  51.8836 224.6068 0012709  56.7249 303.4953 15.34089347  4920
KUIPER-00225            
1 67784U 26030W   26067.58841263  .00029440  00000+0  83773-3 0  9990
2 67784  51.8807 224.4386 0004382  36.8354 323.2933 15.35879461  4927
KUIPER-00226            
1 67785U 26030X   26067.58165485 -.00116963  00000+0 -39013-2 0  9992
2 67785  51.8812 225.1245 0019649  69.7781 290.5314 15.30751718  4914
KUIPER-00259            
1 67786U 26030Y   26067.60111520  .00033383  00000+0  97237-3 0  9992
2 67786  51.8809 224.5193 0008688  46.8447 313.3264 15.35057432  4928
KUIPER-00260            
1 67787U 26030Z   26067.57956456  .00031515  00000+0  87946-3 0  9995
2 67787  51.8799 224.3806 0001169  47.1104 312.9981 15.36459954  4834
KUIPER-00262            
1 67788U 26030AA  26067.57556339  .00033227  00000+0  92097-3 0  9997
2 67788  51.8814 224.3576 0000286  84.8663 275.2356 15.36643979  4923
KUIPER-00266            
1 67789U 26030AB  26067.58652896  .00008987  00000+0  30628-3 0  9991
2 67789  51.8806 225.1532 0022299  70.9138 289.4258 15.30913759  4914
KUIPER-00268            
1 67790U 26030AC  26067.58568729  .00028742  00000+0  81570-3 0  9997
2 67790  51.8842 224.4303 0002669  40.8943 319.2244 15.35980332  4927
KUIPER-00270            
1 67791U 26030AD  26067.60740639  .00038156  00000+0  11236-2 0  9994
2 67791  51.8812 224.5601 0010508  53.3743 306.8207 15.34632124  4928
KUIPER-00274            
1 67792U 26030AE  26067.58335648 -.00002486  00000+0 -71751-4 0  9991
2 67792  51.8827 225.0642 0018137  67.9703 330.3325 15.29858673  3902
KUIPER-00275            
1 67793U 26030AF  26067.60463877  .00038791  00000+0  11397-2 0  9995
2 67793  51.8842 224.5522 0009331  50.2172 309.9634 15.34706685  4921
KUIPER-00276            
1 67794U 26030AG  26067.58335648  .00001961  00000+0  78188-4 0  9999
2 67794  51.8822 225.1038 0018885  64.4829 313.6028 15.30246724  4624
KUIPER-00279            
1 67795U 26030AH  26067.59645877  .00040178  00000+0  11557-2 0  9997
2 67795  51.8796 224.4879 0006559  44.8077 315.3438 15.35377006  4922
CREW DRAGON 12          
1 67796U 26031A   26067.41623043  .00011291  00000+0  21617-3 0  9994
2 67796  51.6319  78.6521 0008065 170.0958 190.0190 15.48526204556025
STARLINK-36800          
1 67797U 26032A   26067.61355828  .00230767  00000+0  15018-2 0  9999
2 67797  97.2842 254.0424 0001490  60.9840 299.1575 15.75263881  4617
STARLINK-36798          
1 67798U 26032B   26067.59732559  .00162957  00000+0  10705-2 0  9990
2 67798  97.2848 254.0651 0001532  77.4956 282.6481 15.75236542  4611
STARLINK-36804          
1 67799U 26032C   26067.61179392  .00094433  00000+0  62639-3 0  9991
2 67799  97.2843 254.0450 0001075  91.4341 268.7048 15.75213336  4610
STARLINK-36354          
1 67800U 26032D   26067.60085681  .00098595  00000+0  65398-3 0  9998
2 67800  97.2847 254.0615 0001230  89.6411 270.4995 15.75200923  4619
STARLINK-36773          
1 67801U 26032E   26067.60861815  .00221613  00000+0  14442-2 0  9992
2 67801  97.2841 254.0489 0001297  97.2516 262.8897 15.75258419  4616
STARLINK-36739          
1 67802U 26032F   26067.58335648 -.00074891  00000+0 -50507-3 0  9999
2 67802  97.2844 254.0669 0001588  72.8204 248.1396 15.75215138  4607
STARLINK-36768          
1 67803U 26032G   26067.60261845  .00202415  00000+0  13225-2 0  9998
2 67803  97.2840 254.0565 0001397  77.3274 282.8147 15.75252280  4613
STARLINK-36792          
1 67804U 26032H   26067.60508168  .00116049  00000+0  76722-3 0  9990
2 67804  97.2840 254.0530 0001418  84.5001 275.6426 15.75224887  4610
STARLINK-36782          
1 67805U 26032J   26067.58335648 -.00016519  00000+0 -11006-3 0  9996
2 67805  97.2846 254.0906 0001451  83.2735 293.6875 15.75195936  4600
STARLINK-36389          
1 67806U 26032K   26067.59379675  .00215919  00000+0  14087-2 0  9990
2 67806  97.2838 254.0680 0001346  92.0605 268.0815 15.75246840  4610
STARLINK-36382          
1 67807U 26032L   26067.59167906  .00228798  00000+0  14897-2 0  9991
2 67807  97.2840 254.0703 0001360 102.1099 258.0319 15.75258059  4619
STARLINK-36811          
1 67808U 26032M   26067.58335648  .00002458  00000+0  17348-4 0  9990
2 67808  97.2848 254.0868 0001537  95.2150 273.7454 15.75186514  4605
STARLINK-36795          
1 67809U 26032N   26067.59873687  .00216930  00000+0  14147-2 0  9996
2 67809  97.2838 254.0607 0001422  89.3885 270.7543 15.75253537  4615
STARLINK-36807          
1 67810U 26032P   26067.58335648 -.00029363  00000+0 -19650-3 0  9996
2 67810  97.2849 254.0827 0001367  96.2744 266.6774 15.75209375  4602
STARLINK-36733          
1 67811U 26032Q   26065.98599289  .00340272  00000+0  16957-2 0  9991
2 67811  97.2826 252.4272 0001019  92.9065 267.2320 15.80984946  4364
STARLINK-36377          
1 67812U 26032R   26067.58335648 -.00007045  00000+0 -46395-4 0  9998
2 67812  97.2850 254.1116 0001578  88.7346 342.2237 15.75193220  4602
STARLINK-36732          
1 67813U 26032S   26067.58335648 -.00031634  00000+0 -21183-3 0  9997
2 67813  97.2849 254.0987 0001344  77.5507 325.4003 15.75208488  4609
STARLINK-36767          
1 67814U 26032T   26067.59556042  .00230445  00000+0  15001-2 0  9992
2 67814  97.2836 254.0635 0001505 110.9008 249.2419 15.75258794  4613
